[{"OBJECT_NAME":"STARLINK-30161","OBJECT_ID":"2023-107V","EPOCH":"2026-03-08T03:18:12.420864","MEAN_MOTION":15.26741769,"ECCENTRICITY":0.00028074,"INCLINATION":43.0039,"RA_OF_ASC_NODE":344.5252,"ARG_OF_PERICENTER":264.6186,"MEAN_ANOMALY":95.4345,"EPHEMERIS_TYPE":0,"CLASSIFICATION_TYPE":"U","NORAD_CAT_ID":57476,"ELEMENT_SET_NO":999,"REV_AT_EPOCH":14491,"BSTAR":-2.4473232e-5,"MEAN_MOTION_DOT":-9.17e-6,"MEAN_MOTION_DDOT":0},{"OBJECT_NAME":"CZ-6A DEB","OBJECT_ID":"2023-168D","EPOCH":"2026-03-09T19:03:52.964928","MEAN_MOTION":15.28240044,"ECCENTRICITY":0.00013417,"INCLINATION":97.7802,"RA_OF_ASC_NODE":98.3362,"ARG_OF_PERICENTER":174.0661,"MEAN_ANOMALY":186.0594,"EPHEMERIS_TYPE":0,"CLASSIFICATION_TYPE":"U","NORAD_CAT_ID":58202,"ELEMENT_SET_NO":999,"REV_AT_EPOCH":12922,"BSTAR":0.0014474773,"MEAN_MOTION_DOT":0.00039923,"MEAN_MOTION_DDOT":0}]
